[{"OBJECT_NAME":"TIANPING 3A-01","OBJECT_ID":"2024-189A","EPOCH":"2026-03-09T23:38:12.967584","MEAN_MOTION":15.01001778,"ECCENTRICITY":0.00023202,"INCLINATION":97.5354,"RA_OF_ASC_NODE":92.2908,"ARG_OF_PERICENTER":68.007,"MEAN_ANOMALY":292.1401,"EPHEMERIS_TYPE":0,"CLASSIFICATION_TYPE":"U","NORAD_CAT_ID":61614,"ELEMENT_SET_NO":999,"REV_AT_EPOCH":7560,"BSTAR":0.00039570452,"MEAN_MOTION_DOT":4.995e-5,"MEAN_MOTION_DDOT":0},{"OBJECT_NAME":"STARLINK-36291","OBJECT_ID":"2025-304D","EPOCH":"2026-03-09T17:12:56.223360","MEAN_MOTION":14.99126226,"ECCENTRICITY":0.00028277,"INCLINATION":70.0022,"RA_OF_ASC_NODE":174.5958,"ARG_OF_PERICENTER":272.889,"MEAN_ANOMALY":87.1946,"EPHEMERIS_TYPE":0,"CLASSIFICATION_TYPE":"U","NORAD_CAT_ID":67195,"ELEMENT_SET_NO":999,"REV_AT_EPOCH":1388,"BSTAR":-0.00017935491,"MEAN_MOTION_DOT":-2.278e-5,"MEAN_MOTION_DDOT":0}]
